ONEWEB-0656             
1 55817U 23029X   25359.87255916  .00000254  00000+0  59204-3 0  9992
2 55817  87.9220 308.9940 0001959  92.6404 267.4953 13.20770652138278
ONEWEB-0657             
1 55818U 23029Y   25359.98323529  .00000081  00000+0  17122-3 0  9992
2 55818  87.9196 339.4461 0001313 104.1548 255.9731 13.19727499136060
ONEWEB-0658             
1 55819U 23029Z   25359.97850420  .00000038  00000+0  63742-4 0  9999
2 55819  87.9219 339.4020 0001700  71.7485 288.3833 13.19726583136074
ONEWEB-0660             
1 55820U 23029AA  25359.88257008  .00000056  00000+0  11697-3 0  9995
2 55820  87.9006 324.2215 0002064  76.5211 283.6149 13.14500828136639
ONEWEB-0661             
1 55821U 23029AB  25359.91746007  .00000016  00000+0  93077-5 0  9992
2 55821  87.9001 324.2788 0002104  78.7504 281.3862 13.14500707136626
ONEWEB-0662             
1 55822U 23029AC  25359.95235562 -.00000119  00000+0 -35438-3 0  9997
2 55822  87.8997 324.2781 0002032  75.7500 284.3856 13.14501825136679
ONEWEB-0663             
1 55823U 23029AD  25359.91852081 -.00000088  00000+0 -24752-3 0  9997
2 55823  87.9232 309.0523 0002021  68.1336 292.0012 13.20853537138274
ONEWEB-0664             
1 55824U 23029AE  25359.78417222 -.00000043  00000+0 -13814-3 0  9995
2 55824  87.9210 309.0824 0002202  83.6760 276.4624 13.20770420138251
